start=new Date('2022-07-05T00:00:00.000Z').valueOf();
sats=[{"DECAY_DATE":null,"NORAD_CAT_ID":"48108","TIME_SYSTEM":"UTC","PERIAPSIS":"546.123","RA_OF_ASC_NODE":"74.0341","APOAPSIS":"548.405","RCS_SIZE":"LARGE","ARG_OF_PERICENTER":"82.0752","INCLINATION":"53.0567","ECCENTRICITY":"0.00016470","OBJECT_ID":"2021-027S","TLE_LINE1":"1 48108U 21027S   22185.92253382 -.00002851  00000-0 -17267-3 0  9999","MEAN_MOTION":"15.06383559","SITE":"AFETR","REF_FRAME":"TEME","CENTER_NAME":"EARTH","MEAN_ELEMENT_THEORY":"SGP4","OBJECT_TYPE":"PAYLOAD","GP_ID":"207417355","EPHEMERIS_TYPE":"0","MEAN_MOTION_DDOT":"0.0000000000000","MEAN_ANOMALY":"278.0424","REV_AT_EPOCH":"7001","OBJECT_NAME":"STARLINK-2444","SEMIMAJOR_AXIS":"6925.399","EPOCH":"2022-07-04T22:08:26.922048","CLASSIFICATION_TYPE":"U","TLE_LINE2":"2 48108  53.0567  74.0341 0001647  82.0752 278.0424 15.06383559 70010","PERIOD":"95.593","BSTAR":"-0.00017267000000","ELEMENT_SET_NO":"999","LAUNCH_DATE":"2021-04-07","MEAN_MOTION_DOT":"-0.00002851","FILE":"3507746","COUNTRY_CODE":"US"},{"ECCENTRICITY":"0.00017000","SITE":"AFETR","REF_FRAME":"TEME","TLE_LINE1":"1 48109U 21027T   22185.93634475 -.00001183  00000-0 -60574-4 0  9994","OBJECT_ID":"2021-027T","MEAN_MOTION":"15.06390330","NORAD_CAT_ID":"48109","DECAY_DATE":null,"ARG_OF_PERICENTER":"68.3895","RCS_SIZE":"LARGE","APOAPSIS":"548.421","INCLINATION":"53.0551","TIME_SYSTEM":"UTC","PERIAPSIS":"546.066","RA_OF_ASC_NODE":"83.9677","EPOCH":"2022-07-04T22:28:20.186400","MEAN_ANOMALY":"291.7275","REV_AT_EPOCH":"6988","OBJECT_NAME":"STARLINK-2445","SEMIMAJOR_AXIS":"6925.378","FILE":"3507746","MEAN_MOTION_DOT":"-0.00001183","COUNTRY_CODE":"US","BSTAR":"-0.00006057400000","TLE_LINE2":"2 48109  53.0551  83.9677 0001700  68.3895 291.7275 15.06390330 69884","PERIOD":"95.593","CLASSIFICATION_TYPE":"U","ELEMENT_SET_NO":"999","LAUNCH_DATE":"2021-04-07","MEAN_ELEMENT_THEORY":"SGP4","OBJECT_TYPE":"PAYLOAD","CENTER_NAME":"EARTH","MEAN_MOTION_DDOT":"0.0000000000000","GP_ID":"207417597","EPHEMERIS_TYPE":"0"},{"COUNTRY_CODE":"US","FILE":"3507746","MEAN_MOTION_DOT":"-0.00001141","ELEMENT_SET_NO":"999","TLE_LINE2":"2 48110  53.0542  74.0798 0001601  76.9931 283.1237 15.06394349 70022","BSTAR":"-0.00005773500000","PERIOD":"95.592","CLASSIFICATION_TYPE":"U","LAUNCH_DATE":"2021-04-07","EPOCH":"2022-07-04T21:52:30.174240","REV_AT_EPOCH":"7002","MEAN_ANOMALY":"283.1237","SEMIMAJOR_AXIS":"6925.366","OBJECT_NAME":"STARLINK-2447","MEAN_MOTION_DDOT":"0.0000000000000","GP_ID":"207416358","EPHEMERIS_TYPE":"0","MEAN_ELEMENT_THEORY":"SGP4","OBJECT_TYPE":"PAYLOAD","CENTER_NAME":"EARTH","SITE":"AFETR","REF_FRAME":"TEME","TLE_LINE1":"1 48110U 21027U   22185.91146035 -.00001141  00000-0 -57735-4 0  9993","OBJECT_ID":"2021-027U","MEAN_MOTION":"15.06394349","ECCENTRICITY":"0.00016010","RCS_SIZE":"LARGE","APOAPSIS":"548.340","ARG_OF_PERICENTER":"76.9931","INCLINATION":"53.0542","TIME_SYSTEM":"UTC","RA_OF_ASC_NODE":"74.0798","PERIAPSIS":"546.122","NORAD_CAT_ID":"48110","DECAY_DATE":null},{"SITE":"AFETR","REF_FRAME":"TEME","TLE_LINE1":"1 48111U 21027V   22185.97043746 -.00002861  00000-0 -17330-3 0  9991","OBJECT_ID":"2021-027V","MEAN_MOTION":"15.06388177","ECCENTRICITY":"0.00016660","RCS_SIZE":"LARGE","APOAPSIS":"548.404","ARG_OF_PERICENTER":"74.6425","INCLINATION":"53.0549","TIME_SYSTEM":"UTC","PERIAPSIS":"546.096","RA_OF_ASC_NODE":"73.7872","NORAD_CAT_ID":"48111","DECAY_DATE":null,"COUNTRY_CODE":"US","FILE":"3507746","MEAN_MOTION_DOT":"-0.00002861","ELEMENT_SET_NO":"999","TLE_LINE2":"2 48111  53.0549  73.7872 0001666  74.6425 285.4748 15.06388177 70038","PERIOD":"95.593","CLASSIFICATION_TYPE":"U","BSTAR":"-0.00017330000000","LAUNCH_DATE":"2021-04-07","EPOCH":"2022-07-04T23:17:25.796544","REV_AT_EPOCH":"7003","MEAN_ANOMALY":"285.4748","SEMIMAJOR_AXIS":"6925.385","OBJECT_NAME":"STARLINK-2448","MEAN_MOTION_DDOT":"0.0000000000000","GP_ID":"207416108","EPHEMERIS_TYPE":"0","MEAN_ELEMENT_THEORY":"SGP4","OBJECT_TYPE":"PAYLOAD","CENTER_NAME":"EARTH"},{"CENTER_NAME":"EARTH","MEAN_ELEMENT_THEORY":"SGP4","OBJECT_TYPE":"PAYLOAD","GP_ID":"207416856","EPHEMERIS_TYPE":"0","MEAN_MOTION_DDOT":"0.0000000000000","REV_AT_EPOCH":"6980","MEAN_ANOMALY":"302.3575","SEMIMAJOR_AXIS":"6925.383","OBJECT_NAME":"STARLINK-2449","EPOCH":"2022-07-04T21:31:58.655424","ELEMENT_SET_NO":"999","TLE_LINE2":"2 48112  53.0549  89.3012 0001869  57.7594 302.3575 15.06388844 69803","PERIOD":"95.593","CLASSIFICATION_TYPE":"U","BSTAR":"-0.00016216000000","LAUNCH_DATE":"2021-04-07","COUNTRY_CODE":"US","FILE":"3507746","MEAN_MOTION_DOT":"-0.00002695","DECAY_DATE":null,"NORAD_CAT_ID":"48112","TIME_SYSTEM":"UTC","PERIAPSIS":"545.953","RA_OF_ASC_NODE":"89.3012","RCS_SIZE":"LARGE","ARG_OF_PERICENTER":"57.7594","APOAPSIS":"548.542","INCLINATION":"53.0549","ECCENTRICITY":"0.00018690","TLE_LINE1":"1 48112U 21027W   22185.89720666 -.00002695  00000-0 -16216-3 0  9993","OBJECT_ID":"2021-027W","MEAN_MOTION":"15.06388844","SITE":"AFETR","REF_FRAME":"TEME"},{"ELEMENT_SET_NO":"999","PERIOD":"95.593","TLE_LINE2":"2 48113  53.0553  84.1328 0001533  76.0946 284.0214 15.06391014 69860","BSTAR":"-0.00018989000000","CLASSIFICATION_TYPE":"U","LAUNCH_DATE":"2021-04-07","COUNTRY_CODE":"US","FILE":"3507746","MEAN_MOTION_DOT":"-0.00003108","REV_AT_EPOCH":"6986","MEAN_ANOMALY":"284.0214","SEMIMAJOR_AXIS":"6925.376","OBJECT_NAME":"STARLINK-2450","EPOCH":"2022-07-04T21:35:16.089792","GP_ID":"207417098","EPHEMERIS_TYPE":"0","MEAN_MOTION_DDOT":"0.0000000000000","CENTER_NAME":"EARTH","MEAN_ELEMENT_THEORY":"SGP4","OBJECT_TYPE":"PAYLOAD","TLE_LINE1":"1 48113U 21027X   22185.89949178 -.00003108  00000-0 -18989-3 0  9994","OBJECT_ID":"2021-027X","MEAN_MOTION":"15.06391014","SITE":"AFETR","REF_FRAME":"TEME","ECCENTRICITY":"0.00015330","TIME_SYSTEM":"UTC","PERIAPSIS":"546.179","RA_OF_ASC_NODE":"84.1328","RCS_SIZE":"LARGE","APOAPSIS":"548.303","ARG_OF_PERICENTER":"76.0946","INCLINATION":"53.0553","DECAY_DATE":null,"NORAD_CAT_ID":"48113"},{"MEAN_MOTION":"15.06383513","TLE_LINE1":"1 48114U 21027Y   22185.92665752 -.00002629  00000-0 -15775-3 0  9999","OBJECT_ID":"2021-027Y","REF_FRAME":"TEME","SITE":"AFETR","ECCENTRICITY":"0.00015950","PERIAPSIS":"546.159","RA_OF_ASC_NODE":"79.0136","TIME_SYSTEM":"UTC","INCLINATION":"53.0535","APOAPSIS":"548.369","RCS_SIZE":"LARGE","ARG_OF_PERICENTER":"76.5514","DECAY_DATE":null,"NORAD_CAT_ID":"48114","LAUNCH_DATE":"2021-04-07","TLE_LINE2":"2 48114  53.0535  79.0136 0001595  76.5514 283.5652 15.06383513 69950","PERIOD":"95.593","CLASSIFICATION_TYPE":"U","BSTAR":"-0.00015775000000","ELEMENT_SET_NO":"999","FILE":"3507746","MEAN_MOTION_DOT":"-0.00002629","COUNTRY_CODE":"US","OBJECT_NAME":"STARLINK-2451","SEMIMAJOR_AXIS":"6925.399","MEAN_ANOMALY":"283.5652","REV_AT_EPOCH":"6995","EPOCH":"2022-07-04T22:14:23.209728","EPHEMERIS_TYPE":"0","GP_ID":"207415859","MEAN_MOTION_DDOT":"0.0000000000000","CENTER_NAME":"EARTH","OBJECT_TYPE":"PAYLOAD","MEAN_ELEMENT_THEORY":"SGP4"},{"CENTER_NAME":"EARTH","OBJECT_TYPE":"PAYLOAD","MEAN_ELEMENT_THEORY":"SGP4","EPHEMERIS_TYPE":"0","GP_ID":"207416608","MEAN_MOTION_DDOT":"0.0000000000000","SEMIMAJOR_AXIS":"6925.372","OBJECT_NAME":"STARLINK-2452","REV_AT_EPOCH":"7002","MEAN_ANOMALY":"289.6521","EPOCH":"2022-07-04T22:54:51.027264","LAUNCH_DATE":"2021-04-07","ELEMENT_SET_NO":"999","TLE_LINE2":"2 48115  53.0547  73.8869 0001719  70.4653 289.6521 15.06392365 70021","CLASSIFICATION_TYPE":"U","PERIOD":"95.593","BSTAR":"-0.00016791000000","COUNTRY_CODE":"US","MEAN_MOTION_DOT":"-0.00002781","FILE":"3507746","DECAY_DATE":null,"NORAD_CAT_ID":"48115","RA_OF_ASC_NODE":"73.8869","PERIAPSIS":"546.046","TIME_SYSTEM":"UTC","INCLINATION":"53.0547","RCS_SIZE":"LARGE","ARG_OF_PERICENTER":"70.4653","APOAPSIS":"548.427","ECCENTRICITY":"0.00017190","MEAN_MOTION":"15.06392365","TLE_LINE1":"1 48115U 21027Z   22185.95475726 -.00002781  00000-0 -16791-3 0  9991","OBJECT_ID":"2021-027Z","REF_FRAME":"TEME","SITE":"AFETR"},{"EPOCH":"2022-07-04T21:29:58.532640","REV_AT_EPOCH":"6987","MEAN_ANOMALY":"291.8222","SEMIMAJOR_AXIS":"6925.404","OBJECT_NAME":"STARLINK-2454","COUNTRY_CODE":"US","MEAN_MOTION_DOT":"-0.00000908","FILE":"3507746","ELEMENT_SET_NO":"999","PERIOD":"95.593","TLE_LINE2":"2 48116  53.0552  84.1343 0001768  68.2955 291.8222 15.06381920 69873","BSTAR":"-0.00004205200000","CLASSIFICATION_TYPE":"U","LAUNCH_DATE":"2021-04-07","MEAN_ELEMENT_THEORY":"SGP4","OBJECT_TYPE":"PAYLOAD","CENTER_NAME":"EARTH","MEAN_MOTION_DDOT":"0.0000000000000","GP_ID":"207417356","EPHEMERIS_TYPE":"0","ECCENTRICITY":"0.00017680","SITE":"AFETR","REF_FRAME":"TEME","TLE_LINE1":"1 48116U 21027AA  22185.89581635 -.00000908  00000-0 -42052-4 0  9991","OBJECT_ID":"2021-027AA","MEAN_MOTION":"15.06381920","NORAD_CAT_ID":"48116","DECAY_DATE":null,"RCS_SIZE":"LARGE","ARG_OF_PERICENTER":"68.2955","APOAPSIS":"548.493","INCLINATION":"53.0552","TIME_SYSTEM":"UTC","RA_OF_ASC_NODE":"84.1343","PERIAPSIS":"546.045"},{"ECCENTRICITY":"0.00013080","TLE_LINE1":"1 48117U 21027AB  22185.93355352 -.00002812  00000-0 -16998-3 0  9997","OBJECT_ID":"2021-027AB","MEAN_MOTION":"15.06394714","SITE":"AFETR","REF_FRAME":"TEME","DECAY_DATE":null,"NORAD_CAT_ID":"48117","TIME_SYSTEM":"UTC","PERIAPSIS":"546.324","RA_OF_ASC_NODE":"63.9755","RCS_SIZE":"LARGE","ARG_OF_PERICENTER":"80.8142","APOAPSIS":"548.136","INCLINATION":"53.0553","REV_AT_EPOCH":"7016","MEAN_ANOMALY":"279.2995","SEMIMAJOR_AXIS":"6925.365","OBJECT_NAME":"STARLINK-2455","EPOCH":"2022-07-04T22:24:19.024128","ELEMENT_SET_NO":"999","PERIOD":"95.592","TLE_LINE2":"2 48117  53.0553  63.9755 0001308  80.8142 279.2995 15.06394714 70161","BSTAR":"-0.00016998000000","CLASSIFICATION_TYPE":"U","LAUNCH_DATE":"2021-04-07","COUNTRY_CODE":"US","FILE":"3507746","MEAN_MOTION_DOT":"-0.00002812","CENTER_NAME":"EARTH","MEAN_ELEMENT_THEORY":"SGP4","OBJECT_TYPE":"PAYLOAD","GP_ID":"207417598","EPHEMERIS_TYPE":"0","MEAN_MOTION_DDOT":"0.0000000000000"}];
